[{"OBJECT_NAME":"ONEWEB-0622","OBJECT_ID":"2023-004Z","EPOCH":"2025-09-26T22:43:03.400032","MEAN_MOTION":13.11416522,"ECCENTRICITY":0.00024491,"INCLINATION":87.8786,"RA_OF_ASC_NODE":73.5035,"ARG_OF_PERICENTER":89.651,"MEAN_ANOMALY":270.4899,"EPHEMERIS_TYPE":0,"CLASSIFICATION_TYPE":"U","NORAD_CAT_ID":55163,"ELEMENT_SET_NO":999,"REV_AT_EPOCH":13129,"BSTAR":-0.0015803864,"MEAN_MOTION_DOT":-5.47e-6,"MEAN_MOTION_DDOT":0},{"OBJECT_NAME":"ONEWEB-0623","OBJECT_ID":"2023-004AA","EPOCH":"2025-09-26T16:06:59.177664","MEAN_MOTION":13.17650348,"ECCENTRICITY":0.00022948,"INCLINATION":87.9066,"RA_OF_ASC_NODE":58.2983,"ARG_OF_PERICENTER":81.6814,"MEAN_ANOMALY":278.4577,"EPHEMERIS_TYPE":0,"CLASSIFICATION_TYPE":"U","NORAD_CAT_ID":55164,"ELEMENT_SET_NO":999,"REV_AT_EPOCH":13288,"BSTAR":9.3298544e-5,"MEAN_MOTION_DOT":4.9e-7,"MEAN_MOTION_DDOT":0},{"OBJECT_NAME":"ONEWEB-0624","OBJECT_ID":"2023-004AB","EPOCH":"2025-09-26T17:44:35.473344","MEAN_MOTION":13.12916023,"ECCENTRICITY":0.00017677,"INCLINATION":87.8923,"RA_OF_ASC_NODE":42.9777,"ARG_OF_PERICENTER":89.8399,"MEAN_ANOMALY":270.2933,"EPHEMERIS_TYPE":0,"CLASSIFICATION_TYPE":"U","NORAD_CAT_ID":55165,"ELEMENT_SET_NO":999,"REV_AT_EPOCH":13350,"BSTAR":0.0012440631,"MEAN_MOTION_DOT":4.63e-6,"MEAN_MOTION_DDOT":0},{"OBJECT_NAME":"ONEWEB-0625","OBJECT_ID":"2023-004AC","EPOCH":"2025-09-26T21:20:27.503808","MEAN_MOTION":13.17649513,"ECCENTRICITY":0.00014916,"INCLINATION":87.9065,"RA_OF_ASC_NODE":58.251,"ARG_OF_PERICENTER":94.2511,"MEAN_ANOMALY":265.8791,"EPHEMERIS_TYPE":0,"CLASSIFICATION_TYPE":"U","NORAD_CAT_ID":55166,"ELEMENT_SET_NO":999,"REV_AT_EPOCH":13290,"BSTAR":-8.9161619e-5,"MEAN_MOTION_DOT":-2.2e-7,"MEAN_MOTION_DDOT":0},{"OBJECT_NAME":"ONEWEB-0626","OBJECT_ID":"2023-004AD","EPOCH":"2025-09-26T21:05:53.191104","MEAN_MOTION":13.17648668,"ECCENTRICITY":0.00017819,"INCLINATION":87.9065,"RA_OF_ASC_NODE":58.2522,"ARG_OF_PERICENTER":111.7791,"MEAN_ANOMALY":248.353,"EPHEMERIS_TYPE":0,"CLASSIFICATION_TYPE":"U","NORAD_CAT_ID":55167,"ELEMENT_SET_NO":999,"REV_AT_EPOCH":13290,"BSTAR":1.4656434e-5,"MEAN_MOTION_DOT":1.9e-7,"MEAN_MOTION_DDOT":0},{"OBJECT_NAME":"ONEWEB-0627","OBJECT_ID":"2023-004AE","EPOCH":"2025-09-26T22:38:13.134048","MEAN_MOTION":13.17650003,"ECCENTRICITY":0.00021299,"INCLINATION":87.9063,"RA_OF_ASC_NODE":58.2408,"ARG_OF_PERICENTER":84.9736,"MEAN_ANOMALY":275.1638,"EPHEMERIS_TYPE":0,"CLASSIFICATION_TYPE":"U","NORAD_CAT_ID":55168,"ELEMENT_SET_NO":999,"REV_AT_EPOCH":13291,"BSTAR":0.0003806423,"MEAN_MOTION_DOT":1.61e-6,"MEAN_MOTION_DDOT":0},{"OBJECT_NAME":"ONEWEB-0628","OBJECT_ID":"2023-004AF","EPOCH":"2025-09-26T22:16:53.580288","MEAN_MOTION":13.12442999,"ECCENTRICITY":0.00021282,"INCLINATION":87.8928,"RA_OF_ASC_NODE":42.9461,"ARG_OF_PERICENTER":82.4627,"MEAN_ANOMALY":277.6744,"EPHEMERIS_TYPE":0,"CLASSIFICATION_TYPE":"U","NORAD_CAT_ID":55169,"ELEMENT_SET_NO":999,"REV_AT_EPOCH":13350,"BSTAR":-0.00069121059,"MEAN_MOTION_DOT":-2.36e-6,"MEAN_MOTION_DDOT":0},{"OBJECT_NAME":"ONEWEB-0629","OBJECT_ID":"2023-004AG","EPOCH":"2025-09-26T22:02:59.738208","MEAN_MOTION":13.17649554,"ECCENTRICITY":0.00015884,"INCLINATION":87.9071,"RA_OF_ASC_NODE":58.2405,"ARG_OF_PERICENTER":81.8603,"MEAN_ANOMALY":278.2709,"EPHEMERIS_TYPE":0,"CLASSIFICATION_TYPE":"U","NORAD_CAT_ID":55170,"ELEMENT_SET_NO":999,"REV_AT_EPOCH":13291,"BSTAR":-4.2301362e-5,"MEAN_MOTION_DOT":-4.0e-8,"MEAN_MOTION_DDOT":0},{"OBJECT_NAME":"ONEWEB-0631","OBJECT_ID":"2023-004AH","EPOCH":"2025-09-26T21:15:12.518784","MEAN_MOTION":13.18684739,"ECCENTRICITY":0.00022156,"INCLINATION":87.9214,"RA_OF_ASC_NODE":27.7148,"ARG_OF_PERICENTER":108.8726,"MEAN_ANOMALY":251.2647,"EPHEMERIS_TYPE":0,"CLASSIFICATION_TYPE":"U","NORAD_CAT_ID":55171,"ELEMENT_SET_NO":999,"REV_AT_EPOCH":13497,"BSTAR":-2.5611188e-5,"MEAN_MOTION_DOT":3.0e-8,"MEAN_MOTION_DDOT":0},{"OBJECT_NAME":"ONEWEB-0709","OBJECT_ID":"2023-004AJ","EPOCH":"2025-09-26T12:32:42.093024","MEAN_MOTION":13.11417247,"ECCENTRICITY":0.0001859,"INCLINATION":87.8788,"RA_OF_ASC_NODE":73.6107,"ARG_OF_PERICENTER":120.7583,"MEAN_ANOMALY":239.3728,"EPHEMERIS_TYPE":0,"CLASSIFICATION_TYPE":"U","NORAD_CAT_ID":55172,"ELEMENT_SET_NO":999,"REV_AT_EPOCH":13131,"BSTAR":0.0013622251,"MEAN_MOTION_DOT":4.96e-6,"MEAN_MOTION_DDOT":0},{"OBJECT_NAME":"ONEWEB-0710","OBJECT_ID":"2023-004AK","EPOCH":"2025-09-26T22:23:38.801472","MEAN_MOTION":13.17646626,"ECCENTRICITY":0.00017021,"INCLINATION":87.9066,"RA_OF_ASC_NODE":58.2336,"ARG_OF_PERICENTER":80.5237,"MEAN_ANOMALY":279.6086,"EPHEMERIS_TYPE":0,"CLASSIFICATION_TYPE":"U","NORAD_CAT_ID":55173,"ELEMENT_SET_NO":999,"REV_AT_EPOCH":13291,"BSTAR":-0.00043818856,"MEAN_MOTION_DOT":-1.57e-6,"MEAN_MOTION_DDOT":0},{"OBJECT_NAME":"ONEWEB-0711","OBJECT_ID":"2023-004AL","EPOCH":"2025-09-26T22:50:22.663680","MEAN_MOTION":13.11417977,"ECCENTRICITY":0.00023676,"INCLINATION":87.8795,"RA_OF_ASC_NODE":73.4931,"ARG_OF_PERICENTER":81.655,"MEAN_ANOMALY":278.4847,"EPHEMERIS_TYPE":0,"CLASSIFICATION_TYPE":"U","NORAD_CAT_ID":55174,"ELEMENT_SET_NO":999,"REV_AT_EPOCH":13133,"BSTAR":-0.0014077835,"MEAN_MOTION_DOT":-4.86e-6,"MEAN_MOTION_DDOT":0},{"OBJECT_NAME":"ONEWEB-0713","OBJECT_ID":"2023-004AM","EPOCH":"2025-09-26T17:47:38.082336","MEAN_MOTION":13.11420159,"ECCENTRICITY":0.00019166,"INCLINATION":87.8788,"RA_OF_ASC_NODE":73.5413,"ARG_OF_PERICENTER":87.1836,"MEAN_ANOMALY":272.9511,"EPHEMERIS_TYPE":0,"CLASSIFICATION_TYPE":"U","NORAD_CAT_ID":55175,"ELEMENT_SET_NO":999,"REV_AT_EPOCH":13129,"BSTAR":0.0008562894,"MEAN_MOTION_DOT":3.16e-6,"MEAN_MOTION_DDOT":0},{"OBJECT_NAME":"ONEWEB-0715","OBJECT_ID":"2023-004AN","EPOCH":"2025-09-26T21:20:02.932512","MEAN_MOTION":13.11420899,"ECCENTRICITY":0.00021256,"INCLINATION":87.8788,"RA_OF_ASC_NODE":73.512,"ARG_OF_PERICENTER":108.7035,"MEAN_ANOMALY":251.4324,"EPHEMERIS_TYPE":0,"CLASSIFICATION_TYPE":"U","NORAD_CAT_ID":55176,"ELEMENT_SET_NO":999,"REV_AT_EPOCH":13135,"BSTAR":4.6295964e-5,"MEAN_MOTION_DOT":2.9e-7,"MEAN_MOTION_DDOT":0},{"OBJECT_NAME":"ONEWEB-0716","OBJECT_ID":"2023-004AP","EPOCH":"2025-09-26T22:13:54.735744","MEAN_MOTION":13.17649418,"ECCENTRICITY":0.00014705,"INCLINATION":87.9064,"RA_OF_ASC_NODE":58.2337,"ARG_OF_PERICENTER":95.4126,"MEAN_ANOMALY":264.7174,"EPHEMERIS_TYPE":0,"CLASSIFICATION_TYPE":"U","NORAD_CAT_ID":55177,"ELEMENT_SET_NO":999,"REV_AT_EPOCH":13291,"BSTAR":3.7373197e-5,"MEAN_MOTION_DOT":2.7e-7,"MEAN_MOTION_DDOT":0},{"OBJECT_NAME":"ONEWEB-0717","OBJECT_ID":"2023-004AQ","EPOCH":"2025-09-26T21:49:36.438528","MEAN_MOTION":13.1764956,"ECCENTRICITY":0.00024088,"INCLINATION":87.9077,"RA_OF_ASC_NODE":58.2014,"ARG_OF_PERICENTER":89.3999,"MEAN_ANOMALY":270.7408,"EPHEMERIS_TYPE":0,"CLASSIFICATION_TYPE":"U","NORAD_CAT_ID":55178,"ELEMENT_SET_NO":999,"REV_AT_EPOCH":13296,"BSTAR":-7.95785e-7,"MEAN_MOTION_DOT":1.3e-7,"MEAN_MOTION_DDOT":0}]
