ONEWEB-0622             
1 55163U 23004Z   25269.94656713 -.00000547  00000+0 -15804-2 0  9991
2 55163  87.8786  73.5035 0002449  89.6510 270.4899 13.11416522131298
ONEWEB-0623             
1 55164U 23004AA  25269.67151826  .00000049  00000+0  93299-4 0  9998
2 55164  87.9066  58.2983 0002294  81.6814 278.4577 13.17650348132889
ONEWEB-0624             
1 55165U 23004AB  25269.73929946  .00000463  00000+0  12441-2 0  9990
2 55165  87.8923  42.9777 0001767  89.8399 270.2933 13.12916023133500
ONEWEB-0625             
1 55166U 23004AC  25269.88920722 -.00000022  00000+0 -89162-4 0  9999
2 55166  87.9065  58.2510 0001491  94.2511 265.8791 13.17649513132901
ONEWEB-0626             
1 55167U 23004AD  25269.87908786  .00000019  00000+0  14656-4 0  9995
2 55167  87.9065  58.2522 0001781 111.7791 248.3530 13.17648668132909
ONEWEB-0627             
1 55168U 23004AE  25269.94320757  .00000161  00000+0  38064-3 0  9996
2 55168  87.9063  58.2408 0002129  84.9736 275.1638 13.17650003132912
ONEWEB-0628             
1 55169U 23004AF  25269.92839792 -.00000236  00000+0 -69121-3 0  9992
2 55169  87.8928  42.9461 0002128  82.4627 277.6744 13.12442999133501
ONEWEB-0629             
1 55170U 23004AG  25269.91874697 -.00000004  00000+0 -42301-4 0  9991
2 55170  87.9071  58.2405 0001588  81.8603 278.2709 13.17649554132910
ONEWEB-0631             
1 55171U 23004AH  25269.88556156  .00000003  00000+0 -25611-4 0  9998
2 55171  87.9214  27.7148 0002215 108.8726 251.2647 13.18684739134974
ONEWEB-0709             
1 55172U 23004AJ  25269.52270941  .00000496  00000+0  13622-2 0  9997
2 55172  87.8788  73.6107 0001859 120.7583 239.3728 13.11417247131315
ONEWEB-0710             
1 55173U 23004AK  25269.93308798 -.00000157  00000+0 -43819-3 0  9993
2 55173  87.9066  58.2336 0001702  80.5237 279.6086 13.17646626132917
ONEWEB-0711             
1 55174U 23004AL  25269.95165120 -.00000486  00000+0 -14078-2 0  9995
2 55174  87.8795  73.4931 0002367  81.6550 278.4847 13.11417977131330
ONEWEB-0713             
1 55175U 23004AM  25269.74141299  .00000316  00000+0  85629-3 0  9995
2 55175  87.8788  73.5413 0001916  87.1836 272.9511 13.11420159131294
ONEWEB-0715             
1 55176U 23004AN  25269.88892283  .00000029  00000+0  46296-4 0  9996
2 55176  87.8788  73.5120 0002125 108.7035 251.4324 13.11420899131356
ONEWEB-0716             
1 55177U 23004AP  25269.92632796  .00000027  00000+0  37373-4 0  9997
2 55177  87.9064  58.2337 0001470  95.4126 264.7174 13.17649418132919
ONEWEB-0717             
1 55178U 23004AQ  25269.90944952  .00000013  00000+0 -79579-6 0  9998
2 55178  87.9077  58.2014 0002408  89.3999 270.7408 13.17649560132968
